start=new Date('2021-11-25T00:00:00.000Z').valueOf();
sats=[{"OBJECT_TYPE":"PAYLOAD","APOAPSIS":"548.515","EPHEMERIS_TYPE":"0","GP_ID":"190424687","INCLINATION":"53.0526","CLASSIFICATION_TYPE":"U","NORAD_CAT_ID":"47724","CENTER_NAME":"EARTH","MEAN_MOTION_DOT":"0.00001119","LAUNCH_DATE":"2021-03-04","REF_FRAME":"TEME","FILE":"3223205","MEAN_ANOMALY":"304.0649","BSTAR":"0.00009403000000","DECAY_DATE":null,"TLE_LINE1":"1 47724U 21017C   21328.79214598  .00001119  00000-0  94030-4 0  9998","REV_AT_EPOCH":"4281","TIME_SYSTEM":"UTC","ECCENTRICITY":"0.00018910","RCS_SIZE":"LARGE","OBJECT_ID":"2021-017C","TLE_LINE2":"2 47724  53.0526 321.1980 0001891  56.0520 304.0649 15.06402524 42818","PERIOD":"95.592","RA_OF_ASC_NODE":"321.1980","SEMIMAJOR_AXIS":"6925.341","MEAN_ELEMENT_THEORY":"SGP4","MEAN_MOTION_DDOT":"0.0000000000000","ELEMENT_SET_NO":"999","PERIAPSIS":"545.896","OBJECT_NAME":"STARLINK-2116","EPOCH":"2021-11-24T19:00:41.412672","COUNTRY_CODE":"US","ARG_OF_PERICENTER":"56.0520","SITE":"AFETR","MEAN_MOTION":"15.06402524"},{"EPHEMERIS_TYPE":"0","APOAPSIS":"548.039","GP_ID":"190401105","OBJECT_TYPE":"PAYLOAD","CLASSIFICATION_TYPE":"U","INCLINATION":"53.0574","NORAD_CAT_ID":"47725","CENTER_NAME":"EARTH","LAUNCH_DATE":"2021-03-04","MEAN_MOTION_DOT":"-0.00000018","BSTAR":"0.00001767900000","REF_FRAME":"TEME","FILE":"3223101","MEAN_ANOMALY":"295.8148","TLE_LINE1":"1 47725U 21017D   21328.56085727 -.00000018  00000-0  17679-4 0  9996","DECAY_DATE":null,"TIME_SYSTEM":"UTC","REV_AT_EPOCH":"4118","ECCENTRICITY":"0.00011780","RCS_SIZE":"LARGE","TLE_LINE2":"2 47725  53.0574  32.2422 0001178  64.2963 295.8148 15.06396814 41187","PERIOD":"95.592","SEMIMAJOR_AXIS":"6925.358","RA_OF_ASC_NODE":"32.2422","OBJECT_ID":"2021-017D","MEAN_MOTION_DDOT":"0.0000000000000","MEAN_ELEMENT_THEORY":"SGP4","PERIAPSIS":"546.408","OBJECT_NAME":"STARLINK-2125","COUNTRY_CODE":"US","EPOCH":"2021-11-24T13:27:38.068128","ELEMENT_SET_NO":"999","SITE":"AFETR","MEAN_MOTION":"15.06396814","ARG_OF_PERICENTER":"64.2963"},{"TLE_LINE1":"1 47726U 21017E   21328.54611738 -.00000204  00000-0  51742-5 0  9999","DECAY_DATE":null,"TIME_SYSTEM":"UTC","REV_AT_EPOCH":"4180","ECCENTRICITY":"0.00014790","RCS_SIZE":"MEDIUM","SEMIMAJOR_AXIS":"6925.381","RA_OF_ASC_NODE":"32.3051","PERIOD":"95.593","TLE_LINE2":"2 47726  53.0574  32.3051 0001479  68.6928 291.4219 15.06389499 41801","OBJECT_ID":"2021-017E","MEAN_MOTION_DDOT":"0.0000000000000","MEAN_ELEMENT_THEORY":"SGP4","COUNTRY_CODE":"US","EPOCH":"2021-11-24T13:06:24.541632","OBJECT_NAME":"STARLINK-2126","PERIAPSIS":"546.221","ELEMENT_SET_NO":"999","SITE":"AFETR","MEAN_MOTION":"15.06389499","ARG_OF_PERICENTER":"68.6928","GP_ID":"190398966","EPHEMERIS_TYPE":"0","APOAPSIS":"548.270","OBJECT_TYPE":"PAYLOAD","INCLINATION":"53.0574","CLASSIFICATION_TYPE":"U","CENTER_NAME":"EARTH","NORAD_CAT_ID":"47726","LAUNCH_DATE":"2021-03-04","MEAN_MOTION_DOT":"-0.00000204","BSTAR":"0.00000517420000","REF_FRAME":"TEME","FILE":"3223022","MEAN_ANOMALY":"291.4219"},{"CENTER_NAME":"EARTH","NORAD_CAT_ID":"47727","CLASSIFICATION_TYPE":"U","INCLINATION":"53.0507","GP_ID":"190401123","APOAPSIS":"474.047","EPHEMERIS_TYPE":"0","OBJECT_TYPE":"PAYLOAD","BSTAR":"-0.01434100000000","FILE":"3223102","MEAN_ANOMALY":"348.9067","REF_FRAME":"TEME","LAUNCH_DATE":"2021-03-04","MEAN_MOTION_DOT":"-0.00411518","RCS_SIZE":"LARGE","ECCENTRICITY":"0.00013850","TIME_SYSTEM":"UTC","REV_AT_EPOCH":"4229","TLE_LINE1":"1 47727U 21017F   21328.60144428 -.00411518  00000-0 -14341-1 0  9999","DECAY_DATE":null,"MEAN_MOTION":"15.30909881","SITE":"AFETR","ARG_OF_PERICENTER":"11.1964","COUNTRY_CODE":"US","EPOCH":"2021-11-24T14:26:04.785792","PERIAPSIS":"472.149","OBJECT_NAME":"STARLINK-2129","ELEMENT_SET_NO":"999","MEAN_MOTION_DDOT":"0.0000000000000","MEAN_ELEMENT_THEORY":"SGP4","SEMIMAJOR_AXIS":"6851.233","RA_OF_ASC_NODE":"313.1442","PERIOD":"94.062","TLE_LINE2":"2 47727  53.0507 313.1442 0001385  11.1964 348.9067 15.30909881 42294","OBJECT_ID":"2021-017F"},{"BSTAR":"0.00017586000000","REF_FRAME":"TEME","FILE":"3222696","MEAN_ANOMALY":"278.1754","LAUNCH_DATE":"2021-03-04","MEAN_MOTION_DOT":"0.00002339","EPHEMERIS_TYPE":"0","APOAPSIS":"548.184","GP_ID":"190368483","OBJECT_TYPE":"PAYLOAD","NORAD_CAT_ID":"47728","CENTER_NAME":"EARTH","INCLINATION":"53.0559","CLASSIFICATION_TYPE":"U","MEAN_MOTION_DDOT":"0.0000000000000","MEAN_ELEMENT_THEORY":"SGP4","TLE_LINE2":"2 47728  53.0559  33.9212 0001427  81.9397 278.1754 15.06405872 41139","PERIOD":"95.592","SEMIMAJOR_AXIS":"6925.331","RA_OF_ASC_NODE":"33.9212","OBJECT_ID":"2021-017G","SITE":"AFETR","MEAN_MOTION":"15.06405872","ARG_OF_PERICENTER":"81.9397","OBJECT_NAME":"STARLINK-2131","PERIAPSIS":"546.207","EPOCH":"2021-11-24T04:31:33.259296","COUNTRY_CODE":"US","ELEMENT_SET_NO":"999","TIME_SYSTEM":"UTC","REV_AT_EPOCH":"4113","TLE_LINE1":"1 47728U 21017G   21328.18857939  .00002339  00000-0  17586-3 0  9992","DECAY_DATE":null,"RCS_SIZE":"LARGE","ECCENTRICITY":"0.00014270"},{"MEAN_MOTION_DOT":"-0.00000986","LAUNCH_DATE":"2021-03-04","REF_FRAME":"TEME","FILE":"3223022","MEAN_ANOMALY":"311.3832","BSTAR":"-0.00004733000000","CLASSIFICATION_TYPE":"U","INCLINATION":"53.0562","CENTER_NAME":"EARTH","NORAD_CAT_ID":"47729","OBJECT_TYPE":"PAYLOAD","GP_ID":"190398722","EPHEMERIS_TYPE":"0","APOAPSIS":"548.453","ELEMENT_SET_NO":"999","EPOCH":"2021-11-24T09:32:04.883136","COUNTRY_CODE":"US","PERIAPSIS":"546.078","OBJECT_NAME":"STARLINK-2132","ARG_OF_PERICENTER":"48.7304","SITE":"AFETR","MEAN_MOTION":"15.06383059","OBJECT_ID":"2021-017H","SEMIMAJOR_AXIS":"6925.400","RA_OF_ASC_NODE":"337.9659","PERIOD":"95.593","TLE_LINE2":"2 47729  53.0562 337.9659 0001715  48.7304 311.3832 15.06383059 42551","MEAN_ELEMENT_THEORY":"SGP4","MEAN_MOTION_DDOT":"0.0000000000000","ECCENTRICITY":"0.00017150","RCS_SIZE":"LARGE","DECAY_DATE":null,"TLE_LINE1":"1 47729U 21017H   21328.39727874 -.00000986  00000-0 -47330-4 0  9999","REV_AT_EPOCH":"4255","TIME_SYSTEM":"UTC"},{"BSTAR":"-0.00005291100000","FILE":"3223022","MEAN_ANOMALY":"279.7000","REF_FRAME":"TEME","LAUNCH_DATE":"2021-03-04","MEAN_MOTION_DOT":"-0.00001069","GP_ID":"190398466","APOAPSIS":"548.048","EPHEMERIS_TYPE":"0","OBJECT_TYPE":"PAYLOAD","CENTER_NAME":"EARTH","NORAD_CAT_ID":"47730","CLASSIFICATION_TYPE":"U","INCLINATION":"53.0560","MEAN_MOTION_DDOT":"0.0000000000000","MEAN_ELEMENT_THEORY":"SGP4","SEMIMAJOR_AXIS":"6925.387","RA_OF_ASC_NODE":"48.2293","PERIOD":"95.593","TLE_LINE2":"2 47730  53.0560  48.2293 0001150  80.4119 279.7000 15.06387488 41572","OBJECT_ID":"2021-017J","SITE":"AFETR","MEAN_MOTION":"15.06387488","ARG_OF_PERICENTER":"80.4119","EPOCH":"2021-11-24T08:13:47.722944","COUNTRY_CODE":"US","OBJECT_NAME":"STARLINK-2140","PERIAPSIS":"546.455","ELEMENT_SET_NO":"999","TIME_SYSTEM":"UTC","REV_AT_EPOCH":"4157","TLE_LINE1":"1 47730U 21017J   21328.34291346 -.00001069  00000-0 -52911-4 0  9990","DECAY_DATE":null,"RCS_SIZE":"LARGE","ECCENTRICITY":"0.00011500"},{"OBJECT_ID":"2021-017K","RA_OF_ASC_NODE":"43.7871","SEMIMAJOR_AXIS":"6925.348","TLE_LINE2":"2 47731  53.0556  43.7871 0001126  72.6760 287.4352 15.06400345 41639","PERIOD":"95.592","MEAN_ELEMENT_THEORY":"SGP4","MEAN_MOTION_DDOT":"0.0000000000000","ELEMENT_SET_NO":"999","EPOCH":"2021-11-24T05:12:41.092992","COUNTRY_CODE":"US","PERIAPSIS":"546.433","OBJECT_NAME":"STARLINK-2141","ARG_OF_PERICENTER":"72.6760","MEAN_MOTION":"15.06400345","SITE":"AFETR","DECAY_DATE":null,"TLE_LINE1":"1 47731U 21017K   21328.21714228 -.00000486  00000-0 -13712-4 0  9994","REV_AT_EPOCH":"4163","TIME_SYSTEM":"UTC","ECCENTRICITY":"0.00011260","RCS_SIZE":"LARGE","MEAN_MOTION_DOT":"-0.00000486","LAUNCH_DATE":"2021-03-04","FILE":"3223022","REF_FRAME":"TEME","MEAN_ANOMALY":"287.4352","BSTAR":"-0.00001371200000","OBJECT_TYPE":"PAYLOAD","GP_ID":"190397228","EPHEMERIS_TYPE":"0","APOAPSIS":"547.992","CLASSIFICATION_TYPE":"U","INCLINATION":"53.0556","CENTER_NAME":"EARTH","NORAD_CAT_ID":"47731"},{"LAUNCH_DATE":"2021-03-04","MEAN_MOTION_DOT":"-0.00000461","BSTAR":"-0.00001203000000","REF_FRAME":"TEME","FILE":"3223022","MEAN_ANOMALY":"311.3505","EPHEMERIS_TYPE":"0","APOAPSIS":"548.792","GP_ID":"190397478","OBJECT_TYPE":"PAYLOAD","INCLINATION":"53.0551","CLASSIFICATION_TYPE":"U","NORAD_CAT_ID":"47732","CENTER_NAME":"EARTH","PERIOD":"95.592","TLE_LINE2":"2 47732  53.0551 318.1036 0002275  48.7680 311.3505 15.06399072 42843","SEMIMAJOR_AXIS":"6925.351","RA_OF_ASC_NODE":"318.1036","OBJECT_ID":"2021-017L","MEAN_MOTION_DDOT":"0.0000000000000","MEAN_ELEMENT_THEORY":"SGP4","PERIAPSIS":"545.641","OBJECT_NAME":"STARLINK-2142","EPOCH":"2021-11-24T08:46:57.703296","COUNTRY_CODE":"US","ELEMENT_SET_NO":"999","SITE":"AFETR","MEAN_MOTION":"15.06399072","ARG_OF_PERICENTER":"48.7680","TLE_LINE1":"1 47732U 21017L   21328.36594564 -.00000461  00000-0 -12030-4 0  9995","DECAY_DATE":null,"TIME_SYSTEM":"UTC","REV_AT_EPOCH":"4284","ECCENTRICITY":"0.00022750","RCS_SIZE":"LARGE"},{"OBJECT_ID":"2021-017M","RA_OF_ASC_NODE":"53.0087","SEMIMAJOR_AXIS":"6925.383","TLE_LINE2":"2 47733  53.0420  53.0087 0001104  64.9992 295.1111 15.06388619 41561","PERIOD":"95.593","MEAN_ELEMENT_THEORY":"SGP4","MEAN_MOTION_DDOT":"0.0000000000000","ELEMENT_SET_NO":"999","COUNTRY_CODE":"US","EPOCH":"2021-11-24T09:42:03.659328","PERIAPSIS":"546.484","OBJECT_NAME":"STARLINK-2143","ARG_OF_PERICENTER":"64.9992","SITE":"AFETR","MEAN_MOTION":"15.06388619","DECAY_DATE":null,"TLE_LINE1":"1 47733U 21017M   21328.40420902 -.00000291  00000-0 -64585-6 0  9990","REV_AT_EPOCH":"4156","TIME_SYSTEM":"UTC","ECCENTRICITY":"0.00011040","RCS_SIZE":"LARGE","MEAN_MOTION_DOT":"-0.00000291","LAUNCH_DATE":"2021-03-04","MEAN_ANOMALY":"295.1111","FILE":"3223022","REF_FRAME":"TEME","BSTAR":"-0.00000064585000","OBJECT_TYPE":"PAYLOAD","GP_ID":"190398222","APOAPSIS":"548.013","EPHEMERIS_TYPE":"0","INCLINATION":"53.0420","CLASSIFICATION_TYPE":"U","CENTER_NAME":"EARTH","NORAD_CAT_ID":"47733"}];
